IRIDIUM 126             
1 42809U 17039G   25112.58401607 -.00000008  00000+0 -97805-5 0  9998
2 42809  86.4022 169.4404 0001912  89.1798 270.9616 14.34217467409665
IRIDIUM 124             
1 42810U 17039H   25112.97683771  .00000336  00000+0  94002-4 0  9994
2 42810  86.4441 106.0593 0002312  95.7140 264.4324 14.43278046414500
IRIDIUM 128             
1 42811U 17039J   25113.76081858  .00000144  00000+0  44399-4 0  9992
2 42811  86.4029 200.4047 0002378 107.1341 253.0115 14.34218303409864
IRIDIUM 121             
1 42812U 17039K   25112.67281177  .00000484  00000+0  16574-3 0  9998
2 42812  86.4017 169.4282 0002516  95.6051 264.5432 14.34219683409557
IRIDIUM 133             
1 42955U 17061A   25112.81577239  .00000022  00000+0  75118-6 0  9994
2 42955  86.4029 200.9063 0002184  98.8762 261.2681 14.34217871394528
IRIDIUM 100             
1 42956U 17061B   25112.80942975  .00000013  00000+0 -23799-5 0  9995
2 42956  86.4033 200.8373 0002144  98.2372 261.9067 14.34217745394529
IRIDIUM 122             
1 42957U 17061C   25112.70794795  .00000509  00000+0  17471-3 0  9997
2 42957  86.4032 200.8788 0002057  97.3077 262.8353 14.34217282394517
IRIDIUM 129             
1 42958U 17061D   25112.80308799  .00000014  00000+0 -20981-5 0  9998
2 42958  86.4036 200.9019 0002341  84.9516 275.1947 14.34217705394545
